{"epoch":1784710044,"count":18256,"objects":[{"id":"62930","name":"KINEIS-2D","type":"PAYLOAD","l1":"1 62930U 25028C   26202.42879180  .00001081  00000-0  16509-3 0  9992","l2":"2 62930  97.9268 254.2138 0004800  95.9950 264.1807 14.75781170 77763"},{"id":"62931","name":"KINEIS-2E","type":"PAYLOAD","l1":"1 62931U 25028D   26202.16436359  .00000942  00000-0  14050-3 0  9995","l2":"2 62931  97.8936 253.0726 0002070  89.7560 270.3887 14.77097844 77790"},{"id":"62932","name":"KINEIS-2A","type":"PAYLOAD","l1":"1 62932U 25028E   26202.59323313  .00000933  00000-0  15166-3 0  9997","l2":"2 62932  98.1283 258.0338 0005778  68.3017 291.8806 14.73461516 77675"},{"id":"62934","name":"KINEIS-2B","type":"PAYLOAD","l1":"1 62934U 25028G   26202.16317319  .00000839  00000-0  13681-3 0  9996","l2":"2 62934  97.9650 254.4067 0004579  59.9623 300.2039 14.73460547 77663"},{"id":"63300","name":"KINEIS-4E","type":"PAYLOAD","l1":"1 63300U 25056A   26202.56999140  .00001097  00000-0  18122-3 0  9999","l2":"2 63300  97.9074 325.5179 0002811  75.3748 284.7771 14.72315070 72182"},{"id":"63301","name":"KINEIS-4C","type":"PAYLOAD","l1":"1 63301U 25056B   26202.58227807  .00001127  00000-0  18579-3 0  9996","l2":"2 63301  97.9127 325.7833 0003291 189.7314 170.3831 14.72337354 72190"},{"id":"63302","name":"KINEIS-4D","type":"PAYLOAD","l1":"1 63302U 25056C   26202.58569608  .00001136  00000-0  18767-3 0  9994","l2":"2 63302  97.9049 325.7530 0001999 191.4461 168.6702 14.72215735 72199"},{"id":"63303","name":"KINEIS-4A","type":"PAYLOAD","l1":"1 63303U 25056D   26202.62092270  .00001089  00000-0  18004-3 0  9997","l2":"2 63303  97.9142 325.7463 0002487 141.1152 219.0235 14.72296150 72193"},{"id":"63304","name":"KINEIS-4B","type":"PAYLOAD","l1":"1 63304U 25056E   26202.60356295  .00000345  00000-0  62357-4 0  9991","l2":"2 63304  97.9154 325.7877 0005886 173.0049 187.1241 14.72282468 72189"}]}