{"fetched_at":"2026-07-22T07:09:52.304Z","source":"https://celestrak.org/NORAD/elements/gp.php?NAME=KINEIS&FORMAT=JSON","constellation":"kineis","records":[{"OBJECT_NAME":"KINEIS-2D","OBJECT_ID":"2025-028C","EPOCH":"2026-07-21T10:17:27.611520","CLASSIFICATION_TYPE":"U","MEAN_MOTION":14.7578117,"ECCENTRICITY":0.00047999,"INCLINATION":97.9268,"RA_OF_ASC_NODE":254.2138,"ARG_OF_PERICENTER":95.995,"MEAN_ANOMALY":264.1807,"EPHEMERIS_TYPE":0,"NORAD_CAT_ID":62930,"ELEMENT_SET_NO":999,"REV_AT_EPOCH":7776,"BSTAR":0.000165085,"MEAN_MOTION_DOT":0.00001081,"MEAN_MOTION_DDOT":0},{"OBJECT_NAME":"KINEIS-2E","OBJECT_ID":"2025-028D","EPOCH":"2026-07-21T03:56:41.014176","CLASSIFICATION_TYPE":"U","MEAN_MOTION":14.77097844,"ECCENTRICITY":0.00020697,"INCLINATION":97.8936,"RA_OF_ASC_NODE":253.0726,"ARG_OF_PERICENTER":89.756,"MEAN_ANOMALY":270.3887,"EPHEMERIS_TYPE":0,"NORAD_CAT_ID":62931,"ELEMENT_SET_NO":999,"REV_AT_EPOCH":7779,"BSTAR":0.00014049552,"MEAN_MOTION_DOT":0.00000942,"MEAN_MOTION_DDOT":0},{"OBJECT_NAME":"KINEIS-2A","OBJECT_ID":"2025-028E","EPOCH":"2026-07-21T14:14:15.342432","CLASSIFICATION_TYPE":"U","MEAN_MOTION":14.73461516,"ECCENTRICITY":0.00057776,"INCLINATION":98.1283,"RA_OF_ASC_NODE":258.0338,"ARG_OF_PERICENTER":68.3017,"MEAN_ANOMALY":291.8806,"EPHEMERIS_TYPE":0,"NORAD_CAT_ID":62932,"ELEMENT_SET_NO":999,"REV_AT_EPOCH":7767,"BSTAR":0.00015165716,"MEAN_MOTION_DOT":0.00000933,"MEAN_MOTION_DDOT":0},{"OBJECT_NAME":"KINEIS-2B","OBJECT_ID":"2025-028G","EPOCH":"2026-07-21T03:54:58.163616","CLASSIFICATION_TYPE":"U","MEAN_MOTION":14.73460547,"ECCENTRICITY":0.00045793,"INCLINATION":97.965,"RA_OF_ASC_NODE":254.4067,"ARG_OF_PERICENTER":59.9623,"MEAN_ANOMALY":300.2039,"EPHEMERIS_TYPE":0,"NORAD_CAT_ID":62934,"ELEMENT_SET_NO":999,"REV_AT_EPOCH":7766,"BSTAR":0.00013680621,"MEAN_MOTION_DOT":0.00000839,"MEAN_MOTION_DDOT":0},{"OBJECT_NAME":"KINEIS-4E","OBJECT_ID":"2025-056A","EPOCH":"2026-07-21T13:40:47.256960","CLASSIFICATION_TYPE":"U","MEAN_MOTION":14.7231507,"ECCENTRICITY":0.00028114,"INCLINATION":97.9074,"RA_OF_ASC_NODE":325.5179,"ARG_OF_PERICENTER":75.3748,"MEAN_ANOMALY":284.7771,"EPHEMERIS_TYPE":0,"NORAD_CAT_ID":63300,"ELEMENT_SET_NO":999,"REV_AT_EPOCH":7218,"BSTAR":0.00018122212,"MEAN_MOTION_DOT":0.00001097,"MEAN_MOTION_DDOT":0},{"OBJECT_NAME":"KINEIS-4C","OBJECT_ID":"2025-056B","EPOCH":"2026-07-21T13:58:28.825248","CLASSIFICATION_TYPE":"U","MEAN_MOTION":14.72337354,"ECCENTRICITY":0.00032908,"INCLINATION":97.9127,"RA_OF_ASC_NODE":325.7833,"ARG_OF_PERICENTER":189.7314,"MEAN_ANOMALY":170.3831,"EPHEMERIS_TYPE":0,"NORAD_CAT_ID":63301,"ELEMENT_SET_NO":999,"REV_AT_EPOCH":7219,"BSTAR":0.00018579359,"MEAN_MOTION_DOT":0.00001127,"MEAN_MOTION_DDOT":0},{"OBJECT_NAME":"KINEIS-4D","OBJECT_ID":"2025-056C","EPOCH":"2026-07-21T14:03:24.141312","CLASSIFICATION_TYPE":"U","MEAN_MOTION":14.72215735,"ECCENTRICITY":0.00019993,"INCLINATION":97.9049,"RA_OF_ASC_NODE":325.753,"ARG_OF_PERICENTER":191.4461,"MEAN_ANOMALY":168.6702,"EPHEMERIS_TYPE":0,"NORAD_CAT_ID":63302,"ELEMENT_SET_NO":999,"REV_AT_EPOCH":7219,"BSTAR":0.00018767406,"MEAN_MOTION_DOT":0.00001136,"MEAN_MOTION_DDOT":0},{"OBJECT_NAME":"KINEIS-4A","OBJECT_ID":"2025-056D","EPOCH":"2026-07-21T14:54:07.721280","CLASSIFICATION_TYPE":"U","MEAN_MOTION":14.7229615,"ECCENTRICITY":0.00024872,"INCLINATION":97.9142,"RA_OF_ASC_NODE":325.7463,"ARG_OF_PERICENTER":141.1152,"MEAN_ANOMALY":219.0235,"EPHEMERIS_TYPE":0,"NORAD_CAT_ID":63303,"ELEMENT_SET_NO":999,"REV_AT_EPOCH":7219,"BSTAR":0.00018004287,"MEAN_MOTION_DOT":0.00001089,"MEAN_MOTION_DDOT":0},{"OBJECT_NAME":"KINEIS-4B","OBJECT_ID":"2025-056E","EPOCH":"2026-07-21T14:29:07.838880","CLASSIFICATION_TYPE":"U","MEAN_MOTION":14.72282468,"ECCENTRICITY":0.00058863,"INCLINATION":97.9154,"RA_OF_ASC_NODE":325.7877,"ARG_OF_PERICENTER":173.0049,"MEAN_ANOMALY":187.1241,"EPHEMERIS_TYPE":0,"NORAD_CAT_ID":63304,"ELEMENT_SET_NO":999,"REV_AT_EPOCH":7218,"BSTAR":0.000062356815,"MEAN_MOTION_DOT":0.00000345,"MEAN_MOTION_DDOT":0}]}
